format  = 'OEF1.1'       ! file format
rectype = 'ML'           ! record type (1L/ML)
refsys  = ECLM J2000     ! default reference system
END_OF_HEADER
1994GV
! Equinoctial elements: a, e*sin(LP), e*cos(LP), tan(i/2)*sin(LN), tan(i/2)*cos(LN), mean long.
 EQU   2.00721089487237E+00  0.053584902647980 -0.516545906374340  0.001373829126485  0.003760038704386 146.0262527399015
 MJD     52470.00000000 TDT
 MAG  27.349  0.000
! RMS    3.14463E-03   2.33155E-05   7.59313E-04   1.50331E-06   2.35005E-06   2.51062E+00
! EIG   3.26351E-10   7.22078E-09   4.88766E-08   6.49308E-07   1.18820E-05   4.39378E-02
! WEA  -0.07157  -0.00046   0.01728  -0.00003  -0.00005   0.99729
 COV   9.888721317006337E-06  6.320424136383788E-08 -2.387759007681321E-06
 COV   4.647522817471477E-09  7.118980878266913E-09 -7.894967005590337E-03
 COV   5.436130878988087E-10 -1.527047355435378E-08  3.086326118414659E-11
 COV   4.792168760586828E-11 -5.047245169296454E-05  5.765557195049431E-07
 COV  -1.122279190135449E-09 -1.719125993510680E-09  1.906342107733844E-03
 COV   2.259929125250902E-12  3.519097170848488E-12 -3.710588322761008E-06
 COV   5.522719470929840E-12 -5.683856386632160E-06  6.303192415321362E+00
 NOR   9.347664045184050E+18  9.437150258727276E+17 -2.934773553467829E+17
 NOR  -2.837189526810219E+15  3.548377764644088E+15  1.180459103981267E+16
 NOR   9.527564592420439E+16 -2.961037285517847E+16 -2.599931601822960E+14
 NOR   3.468230317933342E+14  1.191754241277228E+15  9.694872606623007E+15
 NOR   1.084313361335525E+15 -5.393889364434411E+14 -3.707596369788169E+14
 NOR   1.612661849484204E+16 -6.945225847030910E+15 -3.880469962846742E+12
 NOR   2.994480541515379E+15  4.608988213456599E+12  1.490733708360271E+13
